FOSSASAT-2E5            
1 51001U 22002T   22072.44157397  .00015535  00000+0  83925-3 0  9994
2 51001  97.5016 141.2863 0014525  38.7158 321.5112 15.14705629  8903
KEPLER-18 (BLIP-A)      
1 51002U 22002U   22072.41267856  .00003686  00000+0  21107-3 0  9992
2 51002  97.4939 141.1075 0012767  40.0125 320.2044 15.13173461  8897
FLOCK 4X-22             
1 51003U 22002V   22072.47941015  .00005114  00000+0  29136-3 0  9993
2 51003  97.4979 141.2107 0013005  49.9964 310.2407 15.13176413  8908
FLOCK 4X-5              
1 51004U 22002W   22072.47912154  .00004914  00000+0  28010-3 0  9993
2 51004  97.4955 141.1846 0013209  41.7788 318.4449 15.13179800  8901
FLOCK 4X-41             
1 51005U 22002X   22072.80935872  .00005897  00000+0  33506-3 0  9990
2 51005  97.4936 141.4962 0012685  37.5867 322.6248 15.13213335  8952
FLOCK 4X-3              
1 51006U 22002Y   22072.47839212  .00005126  00000+0  29183-3 0  9996
2 51006  97.4994 141.2220 0013529  46.2865 313.9484 15.13199640  8907
FLOCK 4X-18             
1 51007U 22002Z   22072.47835494  .00005382  00000+0  30627-3 0  9994
2 51007  97.4957 141.1866 0013481  42.1954 318.0312 15.13192316  8902
ICEYE-X16               
1 51008U 22002AA  22072.82263396  .00006669  00000+0  38188-3 0  9999
2 51008  97.4972 141.5053 0011835  41.8543 318.3591 15.12892444  8958
FLOCK 4X-37             
1 51009U 22002AB  22072.41161969  .00005097  00000+0  28998-3 0  9990
2 51009  97.5002 141.1645 0013642  45.5733 314.6612 15.13223726  8895
FLOCK 4X-15             
1 51010U 22002AC  22072.47466923  .00005370  00000+0  30448-3 0  9993
2 51010  97.5007 141.2368 0013712  44.0710 316.1611 15.13316369  8906
FLOCK 4X-29             
1 51011U 22002AD  22072.47486853  .00005081  00000+0  28849-3 0  9999
2 51011  97.4949 141.1850 0013430  40.1701 320.0520 15.13297885  8904
FLOCK 4X-27             
1 51012U 22002AE  22072.80541146  .00006018  00000+0  34086-3 0  9995
2 51012  97.4989 141.5488 0013808  46.3509 313.8864 15.13308464  8955
SATLLA-2B               
1 51014U 22002AG  22072.39842536  .00010743  00000+0  59602-3 0  9999
2 51014  97.5080 141.2373 0013842  41.8754 318.3534 15.13856586  8890
