[
    {
       "OBJECT_NAME": "FOSSASAT-2E5",
       "OBJECT_ID": "2022-002T",
       "EPOCH": "2022-03-13T10:35:51.991008",
       "MEAN_MOTION": 15.14705629,
       "ECCENTRICITY": 0.0014525,
       "INCLINATION": 97.5016,
       "RA_OF_ASC_NODE": 141.2863,
       "ARG_OF_PERICENTER": 38.7158,
       "MEAN_ANOMALY": 321.5112,
       "EPHEMERIS_TYPE": 0,
       "CLASSIFICATION_TYPE": "U",
       "NORAD_CAT_ID": 51001,
       "ELEMENT_SET_NO": 999,
       "REV_AT_EPOCH": 890,
       "BSTAR": 0.00083925,
       "MEAN_MOTION_DOT": 0.00015535,
       "MEAN_MOTION_DDOT": 0
    },
    {
       "OBJECT_NAME": "KEPLER-18 (BLIP-A)",
       "OBJECT_ID": "2022-002U",
       "EPOCH": "2022-03-13T09:54:15.427584",
       "MEAN_MOTION": 15.13173461,
       "ECCENTRICITY": 0.0012767,
       "INCLINATION": 97.4939,
       "RA_OF_ASC_NODE": 141.1075,
       "ARG_OF_PERICENTER": 40.0125,
       "MEAN_ANOMALY": 320.2044,
       "EPHEMERIS_TYPE": 0,
       "CLASSIFICATION_TYPE": "U",
       "NORAD_CAT_ID": 51002,
       "ELEMENT_SET_NO": 999,
       "REV_AT_EPOCH": 889,
       "BSTAR": 0.00021107,
       "MEAN_MOTION_DOT": 0.00003686,
       "MEAN_MOTION_DDOT": 0
    },
    {
       "OBJECT_NAME": "FLOCK 4X-22",
       "OBJECT_ID": "2022-002V",
       "EPOCH": "2022-03-13T11:30:21.036960",
       "MEAN_MOTION": 15.13176413,
       "ECCENTRICITY": 0.0013005,
       "INCLINATION": 97.4979,
       "RA_OF_ASC_NODE": 141.2107,
       "ARG_OF_PERICENTER": 49.9964,
       "MEAN_ANOMALY": 310.2407,
       "EPHEMERIS_TYPE": 0,
       "CLASSIFICATION_TYPE": "U",
       "NORAD_CAT_ID": 51003,
       "ELEMENT_SET_NO": 999,
       "REV_AT_EPOCH": 890,
       "BSTAR": 0.00029136,
       "MEAN_MOTION_DOT": 0.00005114,
       "MEAN_MOTION_DDOT": 0
    },
    {
       "OBJECT_NAME": "FLOCK 4X-5",
       "OBJECT_ID": "2022-002W",
       "EPOCH": "2022-03-13T11:29:56.101056",
       "MEAN_MOTION": 15.131798,
       "ECCENTRICITY": 0.0013209,
       "INCLINATION": 97.4955,
       "RA_OF_ASC_NODE": 141.1846,
       "ARG_OF_PERICENTER": 41.7788,
       "MEAN_ANOMALY": 318.4449,
       "EPHEMERIS_TYPE": 0,
       "CLASSIFICATION_TYPE": "U",
       "NORAD_CAT_ID": 51004,
       "ELEMENT_SET_NO": 999,
       "REV_AT_EPOCH": 890,
       "BSTAR": 0.0002801,
       "MEAN_MOTION_DOT": 0.00004914,
       "MEAN_MOTION_DDOT": 0
    },
    {
       "OBJECT_NAME": "FLOCK 4X-41",
       "OBJECT_ID": "2022-002X",
       "EPOCH": "2022-03-13T19:25:28.593408",
       "MEAN_MOTION": 15.13213335,
       "ECCENTRICITY": 0.0012685,
       "INCLINATION": 97.4936,
       "RA_OF_ASC_NODE": 141.4962,
       "ARG_OF_PERICENTER": 37.5867,
       "MEAN_ANOMALY": 322.6248,
       "EPHEMERIS_TYPE": 0,
       "CLASSIFICATION_TYPE": "U",
       "NORAD_CAT_ID": 51005,
       "ELEMENT_SET_NO": 999,
       "REV_AT_EPOCH": 895,
       "BSTAR": 0.00033506,
       "MEAN_MOTION_DOT": 0.00005897,
       "MEAN_MOTION_DDOT": 0
    },
    {
       "OBJECT_NAME": "FLOCK 4X-3",
       "OBJECT_ID": "2022-002Y",
       "EPOCH": "2022-03-13T11:28:53.079168",
       "MEAN_MOTION": 15.1319964,
       "ECCENTRICITY": 0.0013529,
       "INCLINATION": 97.4994,
       "RA_OF_ASC_NODE": 141.222,
       "ARG_OF_PERICENTER": 46.2865,
       "MEAN_ANOMALY": 313.9484,
       "EPHEMERIS_TYPE": 0,
       "CLASSIFICATION_TYPE": "U",
       "NORAD_CAT_ID": 51006,
       "ELEMENT_SET_NO": 999,
       "REV_AT_EPOCH": 890,
       "BSTAR": 0.00029183,
       "MEAN_MOTION_DOT": 0.00005126,
       "MEAN_MOTION_DDOT": 0
    },
    {
       "OBJECT_NAME": "FLOCK 4X-18",
       "OBJECT_ID": "2022-002Z",
       "EPOCH": "2022-03-13T11:28:49.866816",
       "MEAN_MOTION": 15.13192316,
       "ECCENTRICITY": 0.0013481,
       "INCLINATION": 97.4957,
       "RA_OF_ASC_NODE": 141.1866,
       "ARG_OF_PERICENTER": 42.1954,
       "MEAN_ANOMALY": 318.0312,
       "EPHEMERIS_TYPE": 0,
       "CLASSIFICATION_TYPE": "U",
       "NORAD_CAT_ID": 51007,
       "ELEMENT_SET_NO": 999,
       "REV_AT_EPOCH": 890,
       "BSTAR": 0.00030627,
       "MEAN_MOTION_DOT": 0.00005382,
       "MEAN_MOTION_DDOT": 0
    },
    {
       "OBJECT_NAME": "ICEYE-X16",
       "OBJECT_ID": "2022-002AA",
       "EPOCH": "2022-03-13T19:44:35.574144",
       "MEAN_MOTION": 15.12892444,
       "ECCENTRICITY": 0.0011835,
       "INCLINATION": 97.4972,
       "RA_OF_ASC_NODE": 141.5053,
       "ARG_OF_PERICENTER": 41.8543,
       "MEAN_ANOMALY": 318.3591,
       "EPHEMERIS_TYPE": 0,
       "CLASSIFICATION_TYPE": "U",
       "NORAD_CAT_ID": 51008,
       "ELEMENT_SET_NO": 999,
       "REV_AT_EPOCH": 895,
       "BSTAR": 0.00038188,
       "MEAN_MOTION_DOT": 0.00006669,
       "MEAN_MOTION_DDOT": 0
    },
    {
       "OBJECT_NAME": "FLOCK 4X-37",
       "OBJECT_ID": "2022-002AB",
       "EPOCH": "2022-03-13T09:52:43.941216",
       "MEAN_MOTION": 15.13223726,
       "ECCENTRICITY": 0.0013642,
       "INCLINATION": 97.5002,
       "RA_OF_ASC_NODE": 141.1645,
       "ARG_OF_PERICENTER": 45.5733,
       "MEAN_ANOMALY": 314.6612,
       "EPHEMERIS_TYPE": 0,
       "CLASSIFICATION_TYPE": "U",
       "NORAD_CAT_ID": 51009,
       "ELEMENT_SET_NO": 999,
       "REV_AT_EPOCH": 889,
       "BSTAR": 0.00028998,
       "MEAN_MOTION_DOT": 0.00005097,
       "MEAN_MOTION_DDOT": 0
    },
    {
       "OBJECT_NAME": "FLOCK 4X-15",
       "OBJECT_ID": "2022-002AC",
       "EPOCH": "2022-03-13T11:23:31.421472",
       "MEAN_MOTION": 15.13316369,
       "ECCENTRICITY": 0.0013712,
       "INCLINATION": 97.5007,
       "RA_OF_ASC_NODE": 141.2368,
       "ARG_OF_PERICENTER": 44.071,
       "MEAN_ANOMALY": 316.1611,
       "EPHEMERIS_TYPE": 0,
       "CLASSIFICATION_TYPE": "U",
       "NORAD_CAT_ID": 51010,
       "ELEMENT_SET_NO": 999,
       "REV_AT_EPOCH": 890,
       "BSTAR": 0.00030448,
       "MEAN_MOTION_DOT": 0.0000537,
       "MEAN_MOTION_DDOT": 0
    },
    {
       "OBJECT_NAME": "FLOCK 4X-29",
       "OBJECT_ID": "2022-002AD",
       "EPOCH": "2022-03-13T11:23:48.640992",
       "MEAN_MOTION": 15.13297885,
       "ECCENTRICITY": 0.001343,
       "INCLINATION": 97.4949,
       "RA_OF_ASC_NODE": 141.185,
       "ARG_OF_PERICENTER": 40.1701,
       "MEAN_ANOMALY": 320.052,
       "EPHEMERIS_TYPE": 0,
       "CLASSIFICATION_TYPE": "U",
       "NORAD_CAT_ID": 51011,
       "ELEMENT_SET_NO": 999,
       "REV_AT_EPOCH": 890,
       "BSTAR": 0.00028849,
       "MEAN_MOTION_DOT": 0.00005081,
       "MEAN_MOTION_DDOT": 0
    },
    {
       "OBJECT_NAME": "FLOCK 4X-27",
       "OBJECT_ID": "2022-002AE",
       "EPOCH": "2022-03-13T19:19:47.550144",
       "MEAN_MOTION": 15.13308464,
       "ECCENTRICITY": 0.0013808,
       "INCLINATION": 97.4989,
       "RA_OF_ASC_NODE": 141.5488,
       "ARG_OF_PERICENTER": 46.3509,
       "MEAN_ANOMALY": 313.8864,
       "EPHEMERIS_TYPE": 0,
       "CLASSIFICATION_TYPE": "U",
       "NORAD_CAT_ID": 51012,
       "ELEMENT_SET_NO": 999,
       "REV_AT_EPOCH": 895,
       "BSTAR": 0.00034086,
       "MEAN_MOTION_DOT": 0.00006018,
       "MEAN_MOTION_DDOT": 0
    },
    {
       "OBJECT_NAME": "SATLLA-2B",
       "OBJECT_ID": "2022-002AG",
       "EPOCH": "2022-03-13T09:33:43.951104",
       "MEAN_MOTION": 15.13856586,
       "ECCENTRICITY": 0.0013842,
       "INCLINATION": 97.508,
       "RA_OF_ASC_NODE": 141.2373,
       "ARG_OF_PERICENTER": 41.8754,
       "MEAN_ANOMALY": 318.3534,
       "EPHEMERIS_TYPE": 0,
       "CLASSIFICATION_TYPE": "U",
       "NORAD_CAT_ID": 51014,
       "ELEMENT_SET_NO": 999,
       "REV_AT_EPOCH": 889,
       "BSTAR": 0.00059602,
       "MEAN_MOTION_DOT": 0.00010743,
       "MEAN_MOTION_DDOT": 0
    }
 ]